[{"OBJECT_NAME":"STARLINK-31010","OBJECT_ID":"2023-191M","EPOCH":"2026-03-08T08:00:03.000384","MEAN_MOTION":15.27575293,"ECCENTRICITY":0.00010706,"INCLINATION":42.9996,"RA_OF_ASC_NODE":111.1992,"ARG_OF_PERICENTER":282.2634,"MEAN_ANOMALY":18.6268,"EPHEMERIS_TYPE":0,"CLASSIFICATION_TYPE":"U","NORAD_CAT_ID":58519,"ELEMENT_SET_NO":999,"REV_AT_EPOCH":579,"BSTAR":-0.00019262494,"MEAN_MOTION_DOT":-5.558e-5,"MEAN_MOTION_DDOT":0},{"OBJECT_NAME":"GEOSCAN 4 (RS92S4)","OBJECT_ID":"2025-155S","EPOCH":"2026-03-09T21:50:07.724832","MEAN_MOTION":15.30369837,"ECCENTRICITY":0.00070968,"INCLINATION":97.4465,"RA_OF_ASC_NODE":37.7626,"ARG_OF_PERICENTER":154.7045,"MEAN_ANOMALY":205.4544,"EPHEMERIS_TYPE":0,"CLASSIFICATION_TYPE":"U","NORAD_CAT_ID":64892,"ELEMENT_SET_NO":999,"REV_AT_EPOCH":6562,"BSTAR":0.00068609503,"MEAN_MOTION_DOT":0.00020121,"MEAN_MOTION_DDOT":0}]
